TIANMU-1 08             
1 57400U 23101B   26066.00237819  .00000346  00000+0  14775-4 0  9993
2 57400  97.2717 118.7901 0006380 134.2174 225.9592 15.29204229146020
STARLINK-30950          
1 58440U 23183D   26068.43140173 -.00004482  00000+0 -15336-3 0  9993
2 58440  42.9999 206.5850 0001087 221.0616 139.0154 15.27600190128998
